[{"OBJECT_NAME":"STARLINK-31982","OBJECT_ID":"2024-111G","EPOCH":"2026-03-09T09:31:19.490304","MEAN_MOTION":15.30197424,"ECCENTRICITY":0.00013125,"INCLINATION":53.161,"RA_OF_ASC_NODE":76.6335,"ARG_OF_PERICENTER":104.9475,"MEAN_ANOMALY":255.1672,"EPHEMERIS_TYPE":0,"CLASSIFICATION_TYPE":"U","NORAD_CAT_ID":60022,"ELEMENT_SET_NO":999,"REV_AT_EPOCH":9900,"BSTAR":-5.245089e-5,"MEAN_MOTION_DOT":-1.912e-5,"MEAN_MOTION_DDOT":0},{"OBJECT_NAME":"TEVEL2-6","OBJECT_ID":"2025-052F","EPOCH":"2026-03-09T15:35:24.554400","MEAN_MOTION":15.30760889,"ECCENTRICITY":0.0004769,"INCLINATION":97.4016,"RA_OF_ASC_NODE":325.0381,"ARG_OF_PERICENTER":95.6604,"MEAN_ANOMALY":264.5181,"EPHEMERIS_TYPE":0,"CLASSIFICATION_TYPE":"U","NORAD_CAT_ID":63215,"ELEMENT_SET_NO":999,"REV_AT_EPOCH":5486,"BSTAR":0.00070909,"MEAN_MOTION_DOT":0.00021046,"MEAN_MOTION_DDOT":0}]
